{
  "links" : {
    "next" : "https://api.nasa.gov/neo/rest/v1/feed?start_date=1998-12-23&end_date=1998-12-23&detailed=true&api_key=t0TVs3DtDT2H8Oy2Zy8m2eVrNsAVKAexjcZXUckd",
    "prev" : "https://api.nasa.gov/neo/rest/v1/feed?start_date=1998-12-21&end_date=1998-12-21&detailed=true&api_key=t0TVs3DtDT2H8Oy2Zy8m2eVrNsAVKAexjcZXUckd",
    "self" : "https://api.nasa.gov/neo/rest/v1/feed?start_date=1998-12-22&end_date=1998-12-22&detailed=true&api_key=t0TVs3DtDT2H8Oy2Zy8m2eVrNsAVKAexjcZXUckd"
  },
  "element_count" : 3,
  "near_earth_objects" : {
    "1998-12-22" : [ {
      "links" : {
        "self" : "https://api.nasa.gov/neo/rest/v1/neo/3520762?api_key=t0TVs3DtDT2H8Oy2Zy8m2eVrNsAVKAexjcZXUckd"
      },
      "neo_reference_id" : "3520762",
      "name" : "(2010 JM41)",
      "nasa_jpl_url" : "http://ssd.jpl.nasa.gov/sbdb.cgi?sstr=3520762",
      "absolute_magnitude_h" : 20.8,
      "estimated_diameter" : {
        "kilometers" : {
          "estimated_diameter_min" : 0.1838886721,
          "estimated_diameter_max" : 0.411187571
        },
        "meters" : {
          "estimated_diameter_min" : 183.8886720703,
          "estimated_diameter_max" : 411.1875710413
        },
        "miles" : {
          "estimated_diameter_min" : 0.1142630881,
          "estimated_diameter_max" : 0.2555000322
        },
        "feet" : {
          "estimated_diameter_min" : 603.309310875,
          "estimated_diameter_max" : 1349.040630575
        }
      },
      "is_potentially_hazardous_asteroid" : false,
      "close_approach_data" : [ {
        "close_approach_date" : "1998-12-22",
        "epoch_date_close_approach" : 914313600000,
        "relative_velocity" : {
          "kilometers_per_second" : "23.4063138072",
          "kilometers_per_hour" : "84262.7297059124",
          "miles_per_hour" : "52357.583355321"
        },
        "miss_distance" : {
          "astronomical" : "0.4489438779",
          "lunar" : "174.639175415",
          "kilometers" : "67161048",
          "miles" : "41731940"
        },
        "orbiting_body" : "Earth"
      } ],
      "orbital_data" : {
        "orbit_id" : "17",
        "orbit_determination_date" : "2017-09-07 06:16:49",
        "orbit_uncertainty" : "1",
        "minimum_orbit_intersection" : ".241921",
        "jupiter_tisserand_invariant" : "5.173",
        "epoch_osculation" : "2458000.5",
        "eccentricity" : ".401340468388288",
        "semi_major_axis" : "1.196397774559553",
        "inclination" : "20.38245577467359",
        "ascending_node_longitude" : "198.4950754068257",
        "orbital_period" : "477.9823076526362",
        "perihelion_distance" : ".7162349313391166",
        "perihelion_argument" : "158.2507143536437",
        "aphelion_distance" : "1.676560617779989",
        "perihelion_time" : "2457814.837224500937",
        "mean_anomaly" : "139.8348811442544",
        "mean_motion" : ".7531659524553419",
        "equinox" : "J2000"
      }
    }, {
      "links" : {
        "self" : "https://api.nasa.gov/neo/rest/v1/neo/3740667?api_key=t0TVs3DtDT2H8Oy2Zy8m2eVrNsAVKAexjcZXUckd"
      },
      "neo_reference_id" : "3740667",
      "name" : "(2016 BU)",
      "nasa_jpl_url" : "http://ssd.jpl.nasa.gov/sbdb.cgi?sstr=3740667",
      "absolute_magnitude_h" : 26.7,
      "estimated_diameter" : {
        "kilometers" : {
          "estimated_diameter_min" : 0.0121494041,
          "estimated_diameter_max" : 0.0271668934
        },
        "meters" : {
          "estimated_diameter_min" : 12.14940408,
          "estimated_diameter_max" : 27.1668934089
        },
        "miles" : {
          "estimated_diameter_min" : 0.0075492874,
          "estimated_diameter_max" : 0.0168807197
        },
        "feet" : {
          "estimated_diameter_min" : 39.8602508817,
          "estimated_diameter_max" : 89.1302305717
        }
      },
      "is_potentially_hazardous_asteroid" : false,
      "close_approach_data" : [ {
        "close_approach_date" : "1998-12-22",
        "epoch_date_close_approach" : 914313600000,
        "relative_velocity" : {
          "kilometers_per_second" : "14.2561624231",
          "kilometers_per_hour" : "51322.1847232882",
          "miles_per_hour" : "31889.609724312"
        },
        "miss_distance" : {
          "astronomical" : "0.3014804478",
          "lunar" : "117.275894165",
          "kilometers" : "45100832",
          "miles" : "28024358"
        },
        "orbiting_body" : "Earth"
      } ],
      "orbital_data" : {
        "orbit_id" : "5",
        "orbit_determination_date" : "2017-04-06 08:28:59",
        "orbit_uncertainty" : "7",
        "minimum_orbit_intersection" : ".0160541",
        "jupiter_tisserand_invariant" : "7.146",
        "epoch_osculation" : "2458000.5",
        "eccentricity" : ".2309044110456366",
        "semi_major_axis" : ".8149100722435267",
        "inclination" : "9.02667742190183",
        "ascending_node_longitude" : "300.3660667766757",
        "orbital_period" : "268.6970852837038",
        "perihelion_distance" : ".626743741956978",
        "perihelion_argument" : "351.3252647509667",
        "aphelion_distance" : "1.003076402530076",
        "perihelion_time" : "2458069.811271868372",
        "mean_anomaly" : "267.1368494888281",
        "mean_motion" : "1.339798679319108",
        "equinox" : "J2000"
      }
    }, {
      "links" : {
        "self" : "https://api.nasa.gov/neo/rest/v1/neo/3772846?api_key=t0TVs3DtDT2H8Oy2Zy8m2eVrNsAVKAexjcZXUckd"
      },
      "neo_reference_id" : "3772846",
      "name" : "(2017 FS91)",
      "nasa_jpl_url" : "http://ssd.jpl.nasa.gov/sbdb.cgi?sstr=3772846",
      "absolute_magnitude_h" : 26.286,
      "estimated_diameter" : {
        "kilometers" : {
          "estimated_diameter_min" : 0.0147012742,
          "estimated_diameter_max" : 0.0328730484
        },
        "meters" : {
          "estimated_diameter_min" : 14.7012741569,
          "estimated_diameter_max" : 32.8730483706
        },
        "miles" : {
          "estimated_diameter_min" : 0.0091349454,
          "estimated_diameter_max" : 0.0204263589
        },
        "feet" : {
          "estimated_diameter_min" : 48.2325283048,
          "estimated_diameter_max" : 107.8512120163
        }
      },
      "is_potentially_hazardous_asteroid" : false,
      "close_approach_data" : [ {
        "close_approach_date" : "1998-12-22",
        "epoch_date_close_approach" : 914313600000,
        "relative_velocity" : {
          "kilometers_per_second" : "10.2203766042",
          "kilometers_per_hour" : "36793.3557752723",
          "miles_per_hour" : "22861.9604260296"
        },
        "miss_distance" : {
          "astronomical" : "0.3141450513",
          "lunar" : "122.2024307251",
          "kilometers" : "46995432",
          "miles" : "29201608"
        },
        "orbiting_body" : "Earth"
      } ],
      "orbital_data" : {
        "orbit_id" : "9",
        "orbit_determination_date" : "2017-04-06 08:19:04",
        "orbit_uncertainty" : "5",
        "minimum_orbit_intersection" : ".0103874",
        "jupiter_tisserand_invariant" : "6.550",
        "epoch_osculation" : "2458000.5",
        "eccentricity" : ".2821243965557702",
        "semi_major_axis" : ".9048473079782318",
        "inclination" : "2.539145967632703",
        "ascending_node_longitude" : "16.77862332587374",
        "orbital_period" : "314.3846801362703",
        "perihelion_distance" : ".64956780723976",
        "perihelion_argument" : "40.82955263155544",
        "aphelion_distance" : "1.160126808716703",
        "perihelion_time" : "2458066.910899571277",
        "mean_anomaly" : "283.9532796722262",
        "mean_motion" : "1.145093965278326",
        "equinox" : "J2000"
      }
    } ]
  }
}